NORAD_CAT_ID,OBJECT_NAME,OBJECT_TYPE,EPOCH,MEAN_MOTION,ECCENTRICITY,INCLINATION,RA_OF_ASC_NODE,ARG_OF_PERICENTER,MEAN_ANOMALY,BSTAR,MEAN_MOTION_DOT,MEAN_MOTION_DDOT,TLE_LINE0,TLE_LINE1,TLE_LINE2,SEMIMAJOR_AXIS,PERIOD,APOGEE,PERIGEE,DECAYED
53996.0,STARLINK-5131,PAYLOAD,2023-03-14 09:02:38,15.08847738,0.0001297,53.2162,73.0515,94.6259,265.4882,0.00051121,7.859e-05,0.0,0 STARLINK-5131,1 53996U 22125AJ  23073.37683116  .00007859  00000-0  51121-3 0  9996,2 53996  53.2162  73.0515 0001297  94.6259 265.4882 15.08847738 24718,6917.857,95.437,540.619,538.824,0.0
53996.0,STARLINK-5131,PAYLOAD,2023-03-14 16:59:33,15.0885252,0.0001409,53.2168,71.5646,86.2013,273.914,0.00051134,7.862e-05,0.0,0 STARLINK-5131,1 53996U 22125AJ  23073.70802980  .00007862  00000-0  51134-3 0  9993,2 53996  53.2168  71.5646 0001409  86.2013 273.9140 15.08852520 24831,6917.842,95.437,540.682,538.732,0.0
53996.0,STARLINK-5131,PAYLOAD,2023-03-15 12:04:10,15.08862618,0.0001155,53.2155,67.9967,93.8965,266.2159,0.00050715,7.798e-05,0.0,0 STARLINK-5131,1 53996U 22125AJ  23074.50290057  .00007798  00000-0  50715-3 0  9990,2 53996  53.2155  67.9967 0001155  93.8965 266.2159 15.08862618 24889,6917.811,95.436,540.475,538.877,0.0
53996.0,STARLINK-5131,PAYLOAD,2023-03-15 23:11:53,15.08826046,0.0001497,53.2156,65.9153,74.7946,285.3212,-0.00027154,-4.605e-05,0.0,0 STARLINK-5131,1 53996U 22125AJ  23074.96659587 -.00004605  00000-0 -27154-3 0  9994,2 53996  53.2156  65.9153 0001497  74.7946 285.3212 15.08826046 25025,6917.923,95.438,540.824,538.752,0.0
53996.0,STARLINK-5131,PAYLOAD,2023-03-16 05:33:26,15.08828981,0.0001429,53.2149,64.7258,94.7256,265.3899,-0.00014353,-2.571e-05,0.0,0 STARLINK-5131,1 53996U 22125AJ  23075.23155380 -.00002571  00000-0 -14353-3 0  9994,2 53996  53.2149  64.7258 0001429  94.7256 265.3899 15.08828981 24995,6917.914,95.438,540.768,538.79,0.0
53996.0,STARLINK-5131,PAYLOAD,2023-03-16 16:41:08,15.08839201,0.000169,53.2159,62.6445,90.8016,269.317,0.00018939,2.727e-05,0.0,0 STARLINK-5131,1 53996U 22125AJ  23075.69523534  .00002727  00000-0  18939-3 0  9999,2 53996  53.2159  62.6445 0001690  90.8016 269.3170 15.08839201 25132,6917.883,95.438,540.917,538.579,0.0
53996.0,STARLINK-5131,PAYLOAD,2023-03-17 10:10:22,15.08857174,0.0001728,53.2154,59.3724,94.7287,265.3903,0.00079588,0.00012407,0.0,0 STARLINK-5131,1 53996U 22125AJ  23076.42387161  .00012407  00000-0  79588-3 0  9998,2 53996  53.2154  59.3724 0001728  94.7287 265.3903 15.08857174 25178,6917.828,95.436,540.888,538.497,0.0
53996.0,STARLINK-5131,PAYLOAD,2023-03-18 02:04:14,15.08844974,0.0001731,53.2161,56.3983,94.7938,265.3252,0.00021977,3.212e-05,0.0,0 STARLINK-5131,1 53996U 22125AJ  23077.08627327  .00003212  00000-0  21977-3 0  9995,2 53996  53.2161  56.3983 0001731  94.7938 265.3252 15.08844974 25347,6917.865,95.437,540.928,538.533,0.0
53996.0,STARLINK-5131,PAYLOAD,2023-03-18 10:01:09,15.08855793,0.0001664,53.2163,54.9124,85.1538,274.9644,0.0007632,0.00011884,0.0,0 STARLINK-5131,1 53996U 22125AJ  23077.41747135  .00011884  00000-0  76320-3 0  9998,2 53996  53.2163  54.9124 0001664  85.1538 274.9644 15.08855793 25392,6917.832,95.437,540.848,538.546,0.0
53996.0,STARLINK-5131,PAYLOAD,2023-03-18 22:44:14,15.08848421,0.0001801,53.216,52.5335,98.1803,261.9393,0.0004889,7.503e-05,0.0,0 STARLINK-5131,1 53996U 22125AJ  23077.94739296  .00007503  00000-0  48890-3 0  9999,2 53996  53.2160  52.5335 0001801  98.1803 261.9393 15.08848421 25408,6917.855,95.437,540.966,538.474,0.0
53996.0,STARLINK-5131,PAYLOAD,2023-03-19 05:05:47,15.0885285,0.0001468,53.2162,51.3441,88.8876,271.2285,0.0010613,0.00016649,0.0,0 STARLINK-5131,1 53996U 22125AJ  23078.21235147  .00016649  00000-0  10613-2 0  9998,2 53996  53.2162  51.3441 0001468  88.8876 271.2285 15.08852850 25517,6917.841,95.437,540.722,538.691,0.0
53996.0,STARLINK-5131,PAYLOAD,2023-03-19 08:16:33,15.08861899,0.0001464,53.2161,50.7493,89.7263,270.3897,0.0013643,0.00021505,0.0,0 STARLINK-5131,1 53996U 22125AJ  23078.34482945  .00021505  00000-0  13643-2 0  9995,2 53996  53.2161  50.7493 0001464  89.7263 270.3897 15.08861899 25468,6917.813,95.436,540.691,538.666,0.0
53996.0,STARLINK-5131,PAYLOAD,2023-03-19 14:38:05,15.08844168,0.0001382,53.2162,49.5595,101.244,258.8707,0.00029136,4.353e-05,0.0,0 STARLINK-5131,1 53996U 22125AJ  23078.60979149  .00004353  00000-0  29136-3 0  9998,2 53996  53.2162  49.5595 0001382 101.2440 258.8707 15.08844168 25577,6917.868,95.437,540.689,538.777,0.0
53996.0,STARLINK-5131,PAYLOAD,2023-03-20 06:31:57,15.08849568,0.0001604,53.2166,46.587,108.3065,251.8101,0.00087415,0.00013655,0.0,0 STARLINK-5131,1 53996U 22125AJ  23079.27219287  .00013655  00000-0  87415-3 0  9991,2 53996  53.2166  46.5870 0001604 108.3065 251.8101 15.08849568 25606,6917.851,95.437,540.826,538.607,0.0
53996.0,STARLINK-5131,PAYLOAD,2023-03-21 04:47:21,15.08856148,0.0001681,53.2168,42.4231,114.5131,245.6037,0.00088965,0.00013905,0.0,0 STARLINK-5131,1 53996U 22125AJ  23080.19955224  .00013905  00000-0  88965-3 0  9991,2 53996  53.2168  42.4231 0001681 114.5131 245.6037 15.08856148 25816,6917.831,95.437,540.859,538.533,0.0
53996.0,STARLINK-5131,PAYLOAD,2023-03-21 06:22:44,15.0885818,0.0001791,53.2171,42.1259,117.3899,242.7275,0.0008784,0.00013726,0.0,0 STARLINK-5131,1 53996U 22125AJ  23080.26579108  .00013726  00000-0  87840-3 0  9994,2 53996  53.2171  42.1259 0001791 117.3899 242.7275 15.08858180 25754,6917.825,95.436,540.929,538.451,0.0
53996.0,STARLINK-5131,PAYLOAD,2023-03-22 04:38:08,15.08840697,0.0001333,53.2163,37.9622,125.5169,234.5947,0.00093376,0.00014604,0.0,0 STARLINK-5131,1 53996U 22125AJ  23081.19315589  .00014604  00000-0  93376-3 0  9995,2 53996  53.2163  37.9622 0001333 125.5169 234.5947 15.08840697 25966,6917.878,95.438,540.665,538.821,0.0
53996.0,STARLINK-5131,PAYLOAD,2023-03-22 06:13:31,15.08839881,0.0001306,53.2157,37.664,118.4751,241.6373,0.00053326,8.209e-05,0.0,0 STARLINK-5131,1 53996U 22125AJ  23081.25939599  .00008209  00000-0  53326-3 0  9990,2 53996  53.2157  37.6640 0001306 118.4751 241.6373 15.08839881 25903,6917.881,95.438,540.649,538.842,0.0
53996.0,STARLINK-5131,PAYLOAD,2023-03-23 02:53:32,15.08846106,0.0001276,53.2159,33.8003,105.4825,254.6308,0.00043669,6.67e-05,0.0,0 STARLINK-5131,1 53996U 22125AJ  23082.12051710  .00006670  00000-0  43669-3 0  9996,2 53996  53.2159  33.8003 0001276 105.4825 254.6308 15.08846106 26103,6917.862,95.437,540.609,538.844,0.0
53996.0,STARLINK-5131,PAYLOAD,2023-03-23 04:28:55,15.08848996,0.0001408,53.2168,33.5022,110.787,249.3273,0.00073019,0.00011355,0.0,0 STARLINK-5131,1 53996U 22125AJ  23082.18675517  .00011355  00000-0  73019-3 0  9997,2 53996  53.2168  33.5022 0001408 110.7870 249.3273 15.08848996 26041,6917.853,95.437,540.692,538.744,0.0
53996.0,STARLINK-5131,PAYLOAD,2023-03-24 02:44:19,15.08866303,0.0001129,53.2166,29.3388,88.6456,271.4665,0.001096,0.0001721,0.0,0 STARLINK-5131,1 53996U 22125AJ  23083.11411647  .00017210  00000-0  10960-2 0  9994,2 53996  53.2166  29.3388 0001129  88.6456 271.4665 15.08866303 26188,6917.8,95.436,540.446,538.884,0.0
53996.0,STARLINK-5131,PAYLOAD,2023-03-25 02:35:06,15.08870435,0.0001257,53.2176,24.8805,92.4561,267.6575,0.0011385,0.00017893,0.0,0 STARLINK-5131,1 53996U 22125AJ  23084.10771014  .00017893  00000-0  11385-2 0  9990,2 53996  53.2176  24.8805 0001257  92.4561 267.6575 15.08870435 26408,6917.787,95.436,540.522,538.783,0.0
53996.0,STARLINK-5131,PAYLOAD,2023-03-25 05:45:52,15.0887328,0.0001225,53.2175,24.2851,93.2038,266.9095,0.0011679,0.00018365,0.0,0 STARLINK-5131,1 53996U 22125AJ  23084.24018775  .00018365  00000-0  11679-2 0  9994,2 53996  53.2175  24.2851 0001225  93.2038 266.9095 15.08873280 26359,6917.779,95.435,540.491,538.796,0.0
53996.0,STARLINK-5131,PAYLOAD,2023-03-26 02:25:53,15.08828268,0.0001315,53.2172,20.4198,85.7392,274.375,-6.9396e-05,-1.392e-05,0.0,0 STARLINK-5131,1 53996U 22125AJ  23085.10131487 -.00001392  00000-0 -69396-4 0  9991,2 53996  53.2172  20.4198 0001315  85.7392 274.3750 15.08828268 26556,6917.916,95.438,540.691,538.872,0.0
53996.0,STARLINK-5131,PAYLOAD,2023-03-27 02:16:40,15.08852825,0.0001248,53.2178,15.9601,97.0172,263.0963,0.00019541,2.824e-05,0.0,0 STARLINK-5131,1 53996U 22125AJ  23086.09491770  .00002824  00000-0  19541-3 0  9999,2 53996  53.2178  15.9601 0001248  97.0172 263.0963 15.08852825 26701,6917.841,95.437,540.57,538.843,0.0
53996.0,STARLINK-5131,PAYLOAD,2023-03-28 00:32:05,15.0884825,0.0001383,53.2168,11.7962,114.8737,245.2399,0.00042386,6.466e-05,0.0,0 STARLINK-5131,1 53996U 22125AJ  23087.02228161  .00006466  00000-0  42386-3 0  9994,2 53996  53.2168  11.7962 0001383 114.8737 245.2399 15.08848250 26846,6917.855,95.437,540.677,538.763,0.0
53996.0,STARLINK-5131,PAYLOAD,2023-03-28 05:18:14,15.08863276,0.0001196,53.2174,10.9049,112.6192,247.4927,0.00077039,0.00012002,0.0,0 STARLINK-5131,1 53996U 22125AJ  23087.22099729  .00012002  00000-0  77039-3 0  9998,2 53996  53.2174  10.9049 0001196 112.6192 247.4927 15.08863276 26872,6917.809,95.436,540.502,538.847,0.0
53996.0,STARLINK-5131,PAYLOAD,2023-03-29 00:22:51,15.08842984,0.0001366,53.2187,7.3415,121.8374,238.2751,0.00013685,1.891e-05,0.0,0 STARLINK-5131,1 53996U 22125AJ  23088.01587921  .00001891  00000-0  13685-3 0  9993,2 53996  53.2187   7.3415 0001366 121.8374 238.2751 15.08842984 26995,6917.871,95.437,540.681,538.791,0.0
53996.0,STARLINK-5131,PAYLOAD,2023-03-29 03:33:37,15.0885319,0.0001271,53.2174,6.7378,92.7101,267.4037,0.00029448,4.404e-05,0.0,0 STARLINK-5131,1 53996U 22125AJ  23088.14835647  .00004404  00000-0  29448-3 0  9995,2 53996  53.2174   6.7378 0001271  92.7101 267.4037 15.08853190 26948,6917.84,95.437,540.584,538.826,0.0
53996.0,STARLINK-5131,PAYLOAD,2023-03-30 03:24:25,15.08849198,0.0001056,53.217,2.2787,102.3511,257.7599,0.00034377,5.189e-05,0.0,0 STARLINK-5131,1 53996U 22125AJ  23089.14195722  .00005189  00000-0  34377-3 0  9997,2 53996  53.2170   2.2787 0001056 102.3511 257.7599 15.08849198 27166,6917.852,95.437,540.448,538.987,0.0
